{"type": "FeatureCollection", "features": [ {"type": "Feature", "properties": {"norad_id": 37968, "name": "COSMOS 2251 DEB", "group": "cosmos-2251-debris", "lat": 26.214283889497274, "lon": -93.09965434628275, "alt_km": 509.1041772265935, "timestamp": "2025-12-18T19:29:52.940125+00:00", "meta": {"OBJECT_NAME": "COSMOS 2251 DEB", "OBJECT_ID": "1993-036BPT", "EPOCH": "2025-12-13T01:47:19.855104", "MEAN_MOTION": 15.00631757, "ECCENTRICITY": 0.00804168, "INCLINATION": 74.0008, "RA_OF_ASC_NODE": 270.4748, "ARG_OF_PERICENTER": 26.0563, "MEAN_ANOMALY": 334.4636, "EPHEMERIS_TYPE": 0, "CLASSIFICATION_TYPE": "U", "NORAD_CAT_ID": 37968, "ELEMENT_SET_NO": 999, "REV_AT_EPOCH": 60224, "BSTAR": 0.0014144446, "MEAN_MOTION_DOT": 0.0001917, "MEAN_MOTION_DDOT": 0}, "tle": {"line1": "1 37968U 93036BPT 25347.07453536  .00019170  00000+0  14144-2 0  9991", "line2": "2 37968  74.0008 270.4748 0080416  26.0563 334.4636 15.00631757602245"}}, "geometry": {"type": "Point", "coordinates": [-93.09965434628275, 26.214283889497274]}}, {"type": "Feature", "properties": {"norad_id": 37971, "name": "COSMOS 2251 DEB", "group": "cosmos-2251-debris", "lat": -63.95875925357741, "lon": -113.69006507084481, "alt_km": 728.9671847408981, "timestamp": "2025-12-18T19:29:52.940136+00:00", "meta": {"OBJECT_NAME": "COSMOS 2251 DEB", "OBJECT_ID": "1993-036BPW", "EPOCH": "2025-12-15T20:44:52.764576", "MEAN_MOTION": 14.48694104, "ECCENTRICITY": 0.00668395, "INCLINATION": 73.9939, "RA_OF_ASC_NODE": 35.8693, "ARG_OF_PERICENTER": 174.332, "MEAN_ANOMALY": 185.8612, "EPHEMERIS_TYPE": 0, "CLASSIFICATION_TYPE": "U", "NORAD_CAT_ID": 37971, "ELEMENT_SET_NO": 999, "REV_AT_EPOCH": 60723, "BSTAR": 0.0012835139, "MEAN_MOTION_DOT": 4.95e-05, "MEAN_MOTION_DDOT": 0}, "tle": {"line1": "1 37971U 93036BPW 25349.86449959  .00004950  00000+0  12835-2 0  9993", "line2": "2 37971  73.9939  35.8693 0066839 174.3320 185.8612 14.48694104607235"}}, "geometry": {"type": "Point", "coordinates": [-113.69006507084481, -63.95875925357741]}}, {"type": "Feature", "properties": {"norad_id": 37975, "name": "COSMOS 2251 DEB", "group": "cosmos-2251-debris", "lat": 17.650537936118113, "lon": -42.61183853926995, "alt_km": 626.735470756711, "timestamp": "2025-12-18T19:29:52.940146+00:00", "meta": {"OBJECT_NAME": "COSMOS 2251 DEB", "OBJECT_ID": "1993-036BQA", "EPOCH": "2025-12-18T06:24:18.775872", "MEAN_MOTION": 14.76341165, "ECCENTRICITY": 0.00951612, "INCLINATION": 74.0019, "RA_OF_ASC_NODE": 313.2207, "ARG_OF_PERICENTER": 301.4276, "MEAN_ANOMALY": 57.7618, "EPHEMERIS_TYPE": 0, "CLASSIFICATION_TYPE": "U", "NORAD_CAT_ID": 37975, "ELEMENT_SET_NO": 999, "REV_AT_EPOCH": 69827, "BSTAR": 0.0032629501, "MEAN_MOTION_DOT": 0.00024448, "MEAN_MOTION_DDOT": 0}, "tle": {"line1": "1 37975U 93036BQA 25352.26688398  .00024448  00000+0  32630-2 0  9996", "line2": "2 37975  74.0019 313.2207 0095161 301.4276  57.7618 14.76341165698271"}}, "geometry": {"type": "Point", "coordinates": [-42.61183853926995, 17.650537936118113]}}, {"type": "Feature", "properties": {"norad_id": 37978, "name": "COSMOS 2251 DEB", "group": "cosmos-2251-debris", "lat": -71.6159471206968, "lon": 15.53004985090959, "alt_km": 280.29638933848673, "timestamp": "2025-12-18T19:29:52.940156+00:00", "meta": {"OBJECT_NAME": "COSMOS 2251 DEB", "OBJECT_ID": "1993-036BQD", "EPOCH": "2025-11-19T05:08:53.100672", "MEAN_MOTION": 15.61137081, "ECCENTRICITY": 0.00148985, "INCLINATION": 74.0238, "RA_OF_ASC_NODE": 142.2198, "ARG_OF_PERICENTER": 140.9849, "MEAN_ANOMALY": 219.2448, "EPHEMERIS_TYPE": 0, "CLASSIFICATION_TYPE": "U", "NORAD_CAT_ID": 37978, "ELEMENT_SET_NO": 999, "REV_AT_EPOCH": 8032, "BSTAR": 0.0043958825, "MEAN_MOTION_DOT": 0.0039117, "MEAN_MOTION_DDOT": 0}, "tle": {"line1": "1 37978U 93036BQD 25323.21450348  .00391170  00000+0  43959-2 0  9999", "line2": "2 37978  74.0238 142.2198 0014898 140.9849 219.2448 15.61137081 80328"}}, "geometry": {"type": "Point", "coordinates": [15.53004985090959, -71.6159471206968]}}, {"type": "Feature", "properties": {"norad_id": 37985, "name": "COSMOS 2251 DEB", "group": "cosmos-2251-debris", "lat": -73.4282294831561, "lon": -179.69426691397788, "alt_km": 783.3057727066653, "timestamp": "2025-12-18T19:29:52.940166+00:00", "meta": {"OBJECT_NAME": "COSMOS 2251 DEB", "OBJECT_ID": "1993-036BQL", "EPOCH": "2025-12-17T23:49:27.671232", "MEAN_MOTION": 14.35484605, "ECCENTRICITY": 0.00210144, "INCLINATION": 74.0252, "RA_OF_ASC_NODE": 256.0955, "ARG_OF_PERICENTER": 17.3481, "MEAN_ANOMALY": 342.8385, "EPHEMERIS_TYPE": 0, "CLASSIFICATION_TYPE": "U", "NORAD_CAT_ID": 37985, "ELEMENT_SET_NO": 999, "REV_AT_EPOCH": 64992, "BSTAR": 4.3734025e-05, "MEAN_MOTION_DOT": 1e-06, "MEAN_MOTION_DDOT": 0}, "tle": {"line1": "1 37985U 93036BQL 25351.99268138  .00000100  00000+0  43734-4 0  9990", "line2": "2 37985  74.0252 256.0955 0021014  17.3481 342.8385 14.35484605649921"}}, "geometry": {"type": "Point", "coordinates": [-179.69426691397788, -73.4282294831561]}}, {"type": "Feature", "properties": {"norad_id": 37988, "name": "COSMOS 2251 DEB", "group": "cosmos-2251-debris", "lat": -68.20264759482016, "lon": -33.309190864804265, "alt_km": 695.6114915738317, "timestamp": "2025-12-18T19:29:52.940176+00:00", "meta": {"OBJECT_NAME": "COSMOS 2251 DEB", "OBJECT_ID": "1993-036BQP", "EPOCH": "2025-12-15T01:56:17.446272", "MEAN_MOTION": 14.68888628, "ECCENTRICITY": 0.00634048, "INCLINATION": 74.0635, "RA_OF_ASC_NODE": 19.4997, "ARG_OF_PERICENTER": 56.3451, "MEAN_ANOMALY": 304.3745, "EPHEMERIS_TYPE": 0, "CLASSIFICATION_TYPE": "U", "NORAD_CAT_ID": 37988, "ELEMENT_SET_NO": 999, "REV_AT_EPOCH": 23430, "BSTAR": 0.00052756318, "MEAN_MOTION_DOT": 3.15e-05, "MEAN_MOTION_DDOT": 0}, "tle": {"line1": "1 37988U 93036BQP 25349.08075748  .00003150  00000+0  52756-3 0  9994", "line2": "2 37988  74.0635  19.4997 0063404  56.3451 304.3745 14.68888628234309"}}, "geometry": {"type": "Point", "coordinates": [-33.309190864804265, -68.20264759482016]}}, {"type": "Feature", "properties": {"norad_id": 37993, "name": "COSMOS 2251 DEB", "group": "cosmos-2251-debris", "lat": -45.65415324831602, "lon": -7.634833644127714, "alt_km": 684.7026094666844, "timestamp": "2025-12-18T19:29:52.940186+00:00", "meta": {"OBJECT_NAME": "COSMOS 2251 DEB", "OBJECT_ID": "1993-036BQU", "EPOCH": "2025-12-17T04:37:52.855104", "MEAN_MOTION": 14.59966404, "ECCENTRICITY": 0.00218755, "INCLINATION": 74.021, "RA_OF_ASC_NODE": 158.4097, "ARG_OF_PERICENTER": 246.7183, "MEAN_ANOMALY": 113.168, "EPHEMERIS_TYPE": 0, "CLASSIFICATION_TYPE": "U", "NORAD_CAT_ID": 37993, "ELEMENT_SET_NO": 999, "REV_AT_EPOCH": 65382, "BSTAR": 0.0010496489, "MEAN_MOTION_DOT": 5.024e-05, "MEAN_MOTION_DDOT": 0}, "tle": {"line1": "1 37993U 93036BQU 25351.19297286  .00005024  00000+0  10496-2 0  9994", "line2": "2 37993  74.0210 158.4097 0021875 246.7183 113.1680 14.59966404653827"}}, "geometry": {"type": "Point", "coordinates": [-7.634833644127714, -45.65415324831602]}}, {"type": "Feature", "properties": {"norad_id": 37994, "name": "COSMOS 2251 DEB", "group": "cosmos-2251-debris", "lat": -48.828597756739896, "lon": 103.5808261776425, "alt_km": 772.1670713450085, "timestamp": "2025-12-18T19:29:52.940196+00:00", "meta": {"OBJECT_NAME": "COSMOS 2251 DEB", "OBJECT_ID": "1993-036BQV", "EPOCH": "2025-12-18T05:04:57.871488", "MEAN_MOTION": 14.39635852, "ECCENTRICITY": 0.00231501, "INCLINATION": 74.0361, "RA_OF_ASC_NODE": 265.584, "ARG_OF_PERICENTER": 343.9939, "MEAN_ANOMALY": 16.0481, "EPHEMERIS_TYPE": 0, "CLASSIFICATION_TYPE": "U", "NORAD_CAT_ID": 37994, "ELEMENT_SET_NO": 999, "REV_AT_EPOCH": 77143, "BSTAR": 0.00028022679, "MEAN_MOTION_DOT": 8.52e-06, "MEAN_MOTION_DDOT": 0}, "tle": {"line1": "1 37994U 93036BQV 25352.21178092  .00000852  00000+0  28023-3 0  9992", "line2": "2 37994  74.0361 265.5840 0023150 343.9939  16.0481 14.39635852771434"}}, "geometry": {"type": "Point", "coordinates": [103.5808261776425, -48.828597756739896]}}, {"type": "Feature", "properties": {"norad_id": 37998, "name": "COSMOS 2251 DEB", "group": "cosmos-2251-debris", "lat": -72.23957201369656, "lon": 107.11435622867661, "alt_km": 735.452139732115, "timestamp": "2025-12-18T19:29:52.940206+00:00", "meta": {"OBJECT_NAME": "COSMOS 2251 DEB", "OBJECT_ID": "1993-036BQZ", "EPOCH": "2025-12-07T01:34:33.386016", "MEAN_MOTION": 14.45444842, "ECCENTRICITY": 0.00199405, "INCLINATION": 74.0387, "RA_OF_ASC_NODE": 245.6796, "ARG_OF_PERICENTER": 320.6712, "MEAN_ANOMALY": 39.2997, "EPHEMERIS_TYPE": 0, "CLASSIFICATION_TYPE": "U", "NORAD_CAT_ID": 37998, "ELEMENT_SET_NO": 999, "REV_AT_EPOCH": 64205, "BSTAR": 0.00093558552, "MEAN_MOTION_DOT": 3.277e-05, "MEAN_MOTION_DDOT": 0}, "tle": {"line1": "1 37998U 93036BQZ 25341.06566419  .00003277  00000+0  93559-3 0  9991", "line2": "2 37998  74.0387 245.6796 0019940 320.6712  39.2997 14.45444842642056"}}, "geometry": {"type": "Point", "coordinates": [107.11435622867661, -72.23957201369656]}}, {"type": "Feature", "properties": {"norad_id": 38001, "name": "COSMOS 2251 DEB", "group": "cosmos-2251-debris", "lat": -50.595540314379996, "lon": -39.20285950319356, "alt_km": 601.0158757099571, "timestamp": "2025-12-18T19:29:52.940216+00:00", "meta": {"OBJECT_NAME": "COSMOS 2251 DEB", "OBJECT_ID": "1993-036BRC", "EPOCH": "2025-12-18T03:01:13.401120", "MEAN_MOTION": 14.79136492, "ECCENTRICITY": 0.00654883, "INCLINATION": 74.0021, "RA_OF_ASC_NODE": 121.7103, "ARG_OF_PERICENTER": 270.2167, "MEAN_ANOMALY": 269.2524, "EPHEMERIS_TYPE": 0, "CLASSIFICATION_TYPE": "U", "NORAD_CAT_ID": 38001, "ELEMENT_SET_NO": 999, "REV_AT_EPOCH": 74787, "BSTAR": 0.00063412515, "MEAN_MOTION_DOT": 4.839e-05, "MEAN_MOTION_DDOT": 0}, "tle": {"line1": "1 38001U 93036BRC 25352.12584955  .00004839  00000+0  63413-3 0  9992", "line2": "2 38001  74.0021 121.7103 0065488 270.2167 269.2524 14.79136492747878"}}, "geometry": {"type": "Point", "coordinates": [-39.20285950319356, -50.595540314379996]}}]}